IRIDIUM 155             
1 43573U 18061E   24253.68252810  .00000028  00000+0  30709-5 0  9999
2 43573  86.3999 326.4567 0001954  95.6811 264.4607 14.34217557320834
IRIDIUM 154             
1 43574U 18061F   24254.22164700  .00000334  00000+0  11224-3 0  9990
2 43574  86.4001 326.3327 0002267  92.2854 267.8601 14.34219496320960
IRIDIUM 163             
1 43575U 18061G   24253.92354720  .00000207  00000+0  66917-4 0  9999
2 43575  86.3999 326.3934 0002089  92.7677 267.3757 14.34216819320895
IRIDIUM 156             
1 43576U 18061H   24253.75863852  .00000589  00000+0  20308-3 0  9998
2 43576  86.4001 326.4688 0002046 101.5229 258.6197 14.34218621320864
IRIDIUM 164             
1 43577U 18061J   24253.73961184  .00000231  00000+0  75324-4 0  9997
2 43577  86.3999 326.5068 0002338  95.6048 264.5414 14.34216752320905
IRIDIUM 159             
1 43578U 18061K   24253.91720333  .00000945  00000+0  33031-3 0  9997
2 43578  86.4000 326.3831 0002153  95.8078 264.3363 14.34219433320894
IRIDIUM 180             
1 43922U 19002A   24254.12600029  .00000022  00000+0  79995-6 0  9997
2 43922  86.3907 263.1374 0002395  88.5846 271.5624 14.34216142296573
IRIDIUM 176             
1 43923U 19002B   24253.73761019  .00001567  00000+0  24452-3 0  9991
2 43923  86.6036 263.3150 0002566  90.9889 269.1622 14.72258172304288
IRIDIUM 168             
1 43924U 19002C   24254.11966461 -.00000033  00000+0 -18943-4 0  9991
2 43924  86.3910 263.1992 0002225  90.4598 269.6852 14.34217018296511
IRIDIUM 173             
1 43925U 19002D   24253.75813508 -.00000051  00000+0 -25193-4 0  9999
2 43925  86.3906 263.2660 0002210  88.0774 272.0675 14.34217115296444
IRIDIUM 169             
1 43926U 19002E   24254.19203457  .00001231  00000+0  39586-3 0  9994
2 43926  86.4192 294.7348 0001492  35.6361 324.4937 14.38610998297495
IRIDIUM 172             
1 43927U 19002F   24253.75179120  .00000012  00000+0 -26121-5 0  9995
2 43927  86.3906 263.2744 0002096  92.1191 268.0244 14.34217321296457
IRIDIUM 175             
1 43928U 19002G   24254.20783861  .00001936  00000+0  30295-3 0  9990
2 43928  86.1492 231.4612 0002293  89.4600 270.6879 14.72269788304347
IRIDIUM 171             
1 43929U 19002H   24253.94206221  .00000087  00000+0  23924-4 0  9999
2 43929  86.3912 263.4298 0002232  97.9986 262.1463 14.34216844296478
IRIDIUM 170             
1 43930U 19002J   24254.08363195  .00001473  00000+0  22968-3 0  9997
2 43930  86.6037 263.1754 0002533  89.5631 270.5876 14.72258688304344
IRIDIUM 167             
1 43931U 19002K   24253.93572776  .00000010  00000+0 -36312-5 0  9995
2 43931  86.3908 263.2143 0002088  94.4475 265.6960 14.34217734296476
IRIDIUM 181             
1 56726U 23068S   24253.74260835  .00001480  00000+0  43135-3 0  9997
2 56726  86.8654 321.1679 0002055 102.4832 257.6599 14.43587005 69337
IRIDIUM 177             
1 56727U 23068T   24253.79470911  .00001930  00000+0  25040-3 0  9996
2 56727  86.1920 275.1809 0001855  96.1945 263.9487 14.80240894 70893
IRIDIUM 174             
1 56728U 23068U   24254.12725009  .00001917  00000+0  24870-3 0  9991
2 56728  86.1927 275.1333 0001945 101.6956 258.4484 14.80237940 70947
IRIDIUM 178             
1 56729U 23068V   24253.71631710  .00004683  00000+0  61231-3 0  9996
2 56729  86.5750 296.8130 0002341 103.1904 256.9579 14.80259465 70889
IRIDIUM 179             
1 56730U 23068W   24253.71105004  .00004698  00000+0  61404-3 0  9998
2 56730  86.6766 302.0180 0001997  92.9796 267.1654 14.80273714 70885
